ONEWEB-0331             
1 49198U 21083N   24193.72461075  .00000122  00000+0  27637-3 0  9998
2 49198  87.9153 115.8976 0001996  84.0014 276.1346 13.18689221137039
ONEWEB-0333             
1 49199U 21083P   24194.49774841  .00000331  00000+0  87069-3 0  9999
2 49199  87.8931 100.5215 0001995  72.8858 287.2489 13.13470328139696
ONEWEB-0334             
1 49200U 21083Q   24194.57270634  .00001446  00000+0  35228-2 0  9999
2 49200  87.9182  54.6617 0002500  66.1404 293.9991 13.20793407145074
ONEWEB-0335             
1 49201U 21083R   24194.49297762  .00000352  00000+0  92760-3 0  9992
2 49201  87.8931 100.5109 0001757  77.8360 282.2966 13.13471602139704
ONEWEB-0336             
1 49202U 21083S   24194.15810687 -.00000213  00000+0 -61716-3 0  9998
2 49202  87.8930 100.5735 0002079  76.7261 283.4100 13.13470303139660
ONEWEB-0337             
1 49203U 21083T   24194.47220863 -.00000207  00000+0 -60129-3 0  9995
2 49203  87.8930 100.5095 0001871  79.2612 280.8728 13.13469154139701
ONEWEB-0338             
1 49204U 21083U   24193.89730460 -.00000033  00000+0 -11210-3 0  9994
2 49204  87.9194  54.7809 0001830  69.9693 290.1637 13.20772393145012
ONEWEB-0339             
1 49205U 21083V   24194.48345296  .00000126  00000+0  31003-3 0  9993
2 49205  87.8927 100.5022 0001801  77.1138 283.0192 13.13470318139683
